{"fetched_at":"2026-07-12T05:52:37.085Z","source":"https://celestrak.org/NORAD/elements/gp.php?GROUP=spire&FORMAT=JSON","constellation":"spire","records":[{"OBJECT_NAME":"LEMUR-2-VALHALLA","OBJECT_ID":"2024-022B","EPOCH":"2026-07-11T13:41:56.084928","CLASSIFICATION_TYPE":"U","MEAN_MOTION":15.40414713,"ECCENTRICITY":0.0009603,"INCLINATION":97.409,"RA_OF_ASC_NODE":42.8658,"ARG_OF_PERICENTER":36.1879,"MEAN_ANOMALY":324.0015,"EPHEMERIS_TYPE":0,"NORAD_CAT_ID":58900,"ELEMENT_SET_NO":999,"REV_AT_EPOCH":13602,"BSTAR":0.00023837,"MEAN_MOTION_DOT":0.00009571,"MEAN_MOTION_DDOT":0},{"OBJECT_NAME":"LEMUR-2-CAEL","OBJECT_ID":"2024-022E","EPOCH":"2026-07-11T21:13:06.750624","CLASSIFICATION_TYPE":"U","MEAN_MOTION":15.41781263,"ECCENTRICITY":0.0007503,"INCLINATION":97.4069,"RA_OF_ASC_NODE":44.1632,"ARG_OF_PERICENTER":20.9178,"MEAN_ANOMALY":339.2374,"EPHEMERIS_TYPE":0,"NORAD_CAT_ID":58903,"ELEMENT_SET_NO":999,"REV_AT_EPOCH":13614,"BSTAR":0.00025129,"MEAN_MOTION_DOT":0.00010558,"MEAN_MOTION_DDOT":0},{"OBJECT_NAME":"LEMUR-2-TOMATOKECHUP","OBJECT_ID":"2024-149D","EPOCH":"2026-07-11T19:02:16.184832","CLASSIFICATION_TYPE":"U","MEAN_MOTION":15.36537067,"ECCENTRICITY":0.0003123,"INCLINATION":97.3803,"RA_OF_ASC_NODE":274.9096,"ARG_OF_PERICENTER":128.0995,"MEAN_ANOMALY":232.0531,"EPHEMERIS_TYPE":0,"NORAD_CAT_ID":60471,"ELEMENT_SET_NO":999,"REV_AT_EPOCH":10594,"BSTAR":0.0001843,"MEAN_MOTION_DOT":0.0000649,"MEAN_MOTION_DDOT":0},{"OBJECT_NAME":"LEMUR-2-STELLA","OBJECT_ID":"2024-149BT","EPOCH":"2026-07-11T18:22:22.823616","CLASSIFICATION_TYPE":"U","MEAN_MOTION":15.12328256,"ECCENTRICITY":0.0001185,"INCLINATION":97.674,"RA_OF_ASC_NODE":275.3352,"ARG_OF_PERICENTER":113.7387,"MEAN_ANOMALY":246.3968,"EPHEMERIS_TYPE":0,"NORAD_CAT_ID":60533,"ELEMENT_SET_NO":999,"REV_AT_EPOCH":10421,"BSTAR":0.00037867,"MEAN_MOTION_DOT":0.00006496,"MEAN_MOTION_DDOT":0},{"OBJECT_NAME":"LEMUR-2-MARHISYAM","OBJECT_ID":"2024-149BW","EPOCH":"2026-07-11T18:07:21.622368","CLASSIFICATION_TYPE":"U","MEAN_MOTION":15.11737522,"ECCENTRICITY":0.0002822,"INCLINATION":97.6885,"RA_OF_ASC_NODE":275.7985,"ARG_OF_PERICENTER":75.4227,"MEAN_ANOMALY":284.7316,"EPHEMERIS_TYPE":0,"NORAD_CAT_ID":60536,"ELEMENT_SET_NO":999,"REV_AT_EPOCH":10419,"BSTAR":0.00034254,"MEAN_MOTION_DOT":0.00005773,"MEAN_MOTION_DDOT":0},{"OBJECT_NAME":"LEMUR-2-AHMED-ASRAR","OBJECT_ID":"2024-149DN","EPOCH":"2026-07-11T18:21:43.522848","CLASSIFICATION_TYPE":"U","MEAN_MOTION":15.13261688,"ECCENTRICITY":0.0000772,"INCLINATION":97.7007,"RA_OF_ASC_NODE":277.998,"ARG_OF_PERICENTER":214.4074,"MEAN_ANOMALY":145.7107,"EPHEMERIS_TYPE":0,"NORAD_CAT_ID":60576,"ELEMENT_SET_NO":999,"REV_AT_EPOCH":10428,"BSTAR":0.0003773,"MEAN_MOTION_DOT":0.00006643,"MEAN_MOTION_DDOT":0},{"OBJECT_NAME":"LEMUR-2-LLOYD","OBJECT_ID":"2024-149DP","EPOCH":"2026-07-11T04:07:32.347488","CLASSIFICATION_TYPE":"U","MEAN_MOTION":15.09703583,"ECCENTRICITY":0.00047342,"INCLINATION":97.6747,"RA_OF_ASC_NODE":273.3196,"ARG_OF_PERICENTER":80.8597,"MEAN_ANOMALY":279.3167,"EPHEMERIS_TYPE":0,"NORAD_CAT_ID":60577,"ELEMENT_SET_NO":999,"REV_AT_EPOCH":10401,"BSTAR":0.00040522668,"MEAN_MOTION_DOT":0.00006469,"MEAN_MOTION_DDOT":0},{"OBJECT_NAME":"LEMUR-2-SQUIRRELCOMM","OBJECT_ID":"2024-149DQ","EPOCH":"2026-07-08T00:49:41.985408","CLASSIFICATION_TYPE":"U","MEAN_MOTION":15.07397331,"ECCENTRICITY":0.00047468,"INCLINATION":97.6707,"RA_OF_ASC_NODE":269.8822,"ARG_OF_PERICENTER":354.4134,"MEAN_ANOMALY":5.7039,"EPHEMERIS_TYPE":0,"NORAD_CAT_ID":60578,"ELEMENT_SET_NO":999,"REV_AT_EPOCH":10354,"BSTAR":0.00024740327,"MEAN_MOTION_DOT":0.00003681,"MEAN_MOTION_DDOT":0},{"OBJECT_NAME":"LEMUR-2-SIERRINI","OBJECT_ID":"2024-149DR","EPOCH":"2026-07-10T23:44:06.029952","CLASSIFICATION_TYPE":"U","MEAN_MOTION":15.11454053,"ECCENTRICITY":0.00063798,"INCLINATION":97.6838,"RA_OF_ASC_NODE":274.6929,"ARG_OF_PERICENTER":101.6319,"MEAN_ANOMALY":258.5628,"EPHEMERIS_TYPE":0,"NORAD_CAT_ID":60579,"ELEMENT_SET_NO":999,"REV_AT_EPOCH":10405,"BSTAR":0.00042016557,"MEAN_MOTION_DOT":0.00007045,"MEAN_MOTION_DDOT":0},{"OBJECT_NAME":"LEMUR-2-WILSON","OBJECT_ID":"2025-009CP","EPOCH":"2026-07-11T17:19:46.140384","CLASSIFICATION_TYPE":"U","MEAN_MOTION":14.95271639,"ECCENTRICITY":0.0002281,"INCLINATION":97.7027,"RA_OF_ASC_NODE":270.7566,"ARG_OF_PERICENTER":344.0726,"MEAN_ANOMALY":16.0423,"EPHEMERIS_TYPE":0,"NORAD_CAT_ID":62694,"ELEMENT_SET_NO":999,"REV_AT_EPOCH":8102,"BSTAR":0.000067005,"MEAN_MOTION_DOT":0.00000681,"MEAN_MOTION_DDOT":0},{"OBJECT_NAME":"LEMUR-2-STAR-FOX","OBJECT_ID":"2025-009CR","EPOCH":"2026-07-11T19:08:42.825696","CLASSIFICATION_TYPE":"U","MEAN_MOTION":15.02816191,"ECCENTRICITY":0.0002707,"INCLINATION":97.6921,"RA_OF_ASC_NODE":274.2306,"ARG_OF_PERICENTER":55.6079,"MEAN_ANOMALY":304.5401,"EPHEMERIS_TYPE":0,"NORAD_CAT_ID":62696,"ELEMENT_SET_NO":999,"REV_AT_EPOCH":8125,"BSTAR":0.00026155,"MEAN_MOTION_DOT":0.00003441,"MEAN_MOTION_DDOT":0},{"OBJECT_NAME":"LEMUR-2-ARIANNA","OBJECT_ID":"2025-009CU","EPOCH":"2026-07-11T19:06:30.498912","CLASSIFICATION_TYPE":"U","MEAN_MOTION":15.02817181,"ECCENTRICITY":0.0002952,"INCLINATION":97.6857,"RA_OF_ASC_NODE":273.9837,"ARG_OF_PERICENTER":61.1158,"MEAN_ANOMALY":299.0362,"EPHEMERIS_TYPE":0,"NORAD_CAT_ID":62699,"ELEMENT_SET_NO":999,"REV_AT_EPOCH":8125,"BSTAR":0.00027574,"MEAN_MOTION_DOT":0.00003632,"MEAN_MOTION_DDOT":0},{"OBJECT_NAME":"LEMUR-2-ALISIA","OBJECT_ID":"2025-009DB","EPOCH":"2026-07-11T18:27:47.252160","CLASSIFICATION_TYPE":"U","MEAN_MOTION":15.03143055,"ECCENTRICITY":0.0003841,"INCLINATION":97.6972,"RA_OF_ASC_NODE":274.7746,"ARG_OF_PERICENTER":139.3909,"MEAN_ANOMALY":220.7603,"EPHEMERIS_TYPE":0,"NORAD_CAT_ID":62706,"ELEMENT_SET_NO":999,"REV_AT_EPOCH":10385,"BSTAR":0.00036172,"MEAN_MOTION_DOT":0.00004825,"MEAN_MOTION_DDOT":0},{"OBJECT_NAME":"LEMUR-2-ROUNDTRIPPER","OBJECT_ID":"2025-009DG","EPOCH":"2026-07-11T18:38:43.358208","CLASSIFICATION_TYPE":"U","MEAN_MOTION":15.04195859,"ECCENTRICITY":0.0004378,"INCLINATION":97.7246,"RA_OF_ASC_NODE":275.4244,"ARG_OF_PERICENTER":71.1982,"MEAN_ANOMALY":288.9719,"EPHEMERIS_TYPE":0,"NORAD_CAT_ID":62711,"ELEMENT_SET_NO":999,"REV_AT_EPOCH":8132,"BSTAR":0.00039714,"MEAN_MOTION_DOT":0.00005456,"MEAN_MOTION_DDOT":0},{"OBJECT_NAME":"LEMUR-2-MYNAMEISJEFF","OBJECT_ID":"2025-009DH","EPOCH":"2026-07-11T18:36:30.871584","CLASSIFICATION_TYPE":"U","MEAN_MOTION":15.04187846,"ECCENTRICITY":0.0003769,"INCLINATION":97.7298,"RA_OF_ASC_NODE":275.8188,"ARG_OF_PERICENTER":105.2846,"MEAN_ANOMALY":254.8796,"EPHEMERIS_TYPE":0,"NORAD_CAT_ID":62712,"ELEMENT_SET_NO":999,"REV_AT_EPOCH":8132,"BSTAR":0.00038945,"MEAN_MOTION_DOT":0.00005347,"MEAN_MOTION_DDOT":0}]}
